OBJECT_NAME,OBJECT_ID,EPOCH,MEAN_MOTION,ECCENTRICITY,INCLINATION,RA_OF_ASC_NODE,ARG_OF_PERICENTER,MEAN_ANOMALY,EPHEMERIS_TYPE,CLASSIFICATION_TYPE,NORAD_CAT_ID,ELEMENT_SET_NO,REV_AT_EPOCH,BSTAR,MEAN_MOTION_DOT,MEAN_MOTION_DDOT
STARLINK-36827,2026-036E,2026-07-12T12:56:06.173376,15.27590523,.00012717,42.9968,260.4017,285.1907,74.8804,0,U,67908,999,2281,.48734939E-3,.13177E-3,0
STARLINK-36822,2026-036F,2026-07-12T04:59:44.741472,15.27561965,.00008015,42.9965,262.2234,204.7714,155.3100,0,U,67909,999,2276,.39402908E-3,.10591E-3,0
STARLINK-36847,2026-036G,2026-07-12T04:54:13.050144,15.27585149,.00016017,42.9977,262.1922,283.4306,76.6367,0,U,67910,999,2276,.28605453E-3,.7619E-4,0
STARLINK-36736,2026-036H,2026-07-12T06:19:07.137120,15.27586191,.0001478,43.0002,261.7642,255.1678,104.9010,0,U,67911,999,2277,.40756E-3,.10972E-3,0
STARLINK-36676,2026-036J,2026-07-12T12:30:11.588544,15.27590204,.00018544,43.0022,260.2619,263.8951,96.1689,0,U,67912,999,2281,.39466432E-3,.10617E-3,0
STARLINK-36690,2026-036K,2026-07-12T06:08:01.756032,15.27563828,.0001368,42.9977,261.7008,236.8832,123.1889,0,U,67913,999,2277,.25988E-3,.6893E-4,0
STARLINK-36724,2026-036L,2026-07-12T13:43:59.736288,15.27597465,.00023387,43.0041,259.7892,291.3042,68.7560,0,U,67914,999,2282,.29365667E-3,.7831E-4,0
STARLINK-36723,2026-036M,2026-07-12T06:02:27.860640,15.27585280,.0001557,43.0014,261.6717,259.6538,100.4138,0,U,67915,999,2277,.27229E-3,.7239E-4,0
STARLINK-36721,2026-036N,2026-07-12T05:47:39.768000,15.27585557,.0001398,43.0027,261.5974,271.9552,88.1140,0,U,67916,999,2277,.34837E-3,.9338E-4,0
STARLINK-36722,2026-036P,2026-07-12T04:07:56.893728,15.27584976,.00016063,42.9997,261.9278,252.6044,107.4632,0,U,67917,999,2276,.2757684E-3,.7335E-4,0
STARLINK-36341,2026-036Q,2026-07-12T11:44:08.089728,15.27569615,.00016346,43.0016,260.9036,277.4941,82.5724,0,U,67918,999,2280,.40925012E-3,.11013E-3,0
STARLINK-36663,2026-036R,2026-07-12T11:53:11.194944,15.27585147,.00016335,43.0021,260.0608,262.7562,97.3104,0,U,67919,999,2281,.463631E-3,.1252E-3,0
STARLINK-36375,2026-036S,2026-07-12T13:09:03.073536,15.27586782,.0001514,42.9994,260.4671,271.5742,88.4936,0,U,67920,999,2281,.38596109E-3,.10376E-3,0
STARLINK-36405,2026-036T,2026-07-12T05:12:43.432704,15.27582767,.00013971,42.9970,262.2956,275.4235,84.6457,0,U,67921,999,2276,.32102351E-3,.8583E-4,0
STARLINK-36406,2026-036V,2026-07-12T05:01:37.096032,15.27586754,.00017127,42.9938,262.2413,142.9809,217.1161,0,U,67923,999,2276,.35617615E-3,.9554E-4,0
STARLINK-36714,2026-036W,2026-07-12T06:30:12.136320,15.27622317,.0003768,42.9955,261.8230,292.9896,67.0558,0,U,67924,999,2277,.18339E-3,.4794E-4,0
STARLINK-36726,2026-036X,2026-07-12T14:11:45.886848,15.27587938,.00020747,43.0020,259.9494,296.3794,63.6845,0,U,67925,999,2282,.50393443E-3,.13634E-3,0
STARLINK-36758,2026-036Y,2026-07-12T14:06:12.030336,15.27582673,.0002515,43.0035,259.9068,283.9925,76.0647,0,U,67926,999,2282,.55021169E-3,.14911E-3,0
STARLINK-36728,2026-036Z,2026-07-12T06:04:19.003008,15.27584140,.000166,43.0034,261.6841,263.2919,96.7743,0,U,67927,999,2277,.34891E-3,.9352E-4,0
STARLINK-36771,2026-036AA,2026-07-12T12:26:29.407488,15.27591545,.00016778,43.0035,260.2428,265.7624,94.3036,0,U,67928,999,2281,.43903399E-3,.11843E-3,0
STARLINK-36809,2026-036AB,2026-07-12T05:58:46.095168,15.27584788,.0001898,43.0040,261.6593,277.2231,82.8405,0,U,67929,999,2277,.25813E-3,.6849E-4,0
STARLINK-36865,2026-036AC,2026-07-12T05:43:57.535104,15.27586005,.0000984,42.9995,261.5684,228.0982,131.9786,0,U,67930,999,2277,.33088E-3,.8856E-4,0
STARLINK-36781,2026-036AD,2026-07-12T05:49:30.524160,15.27591447,.0001226,42.9995,261.6016,173.8926,186.1941,0,U,67931,999,2277,.55418E-3,.15024E-3,0
STARLINK-36301,2026-037A,2026-07-12T10:23:28.583808,15.27587361,.00015896,43.0000,206.6648,270.0281,90.0389,0,U,67932,999,2241,.36477479E-3,.9791E-4,0
STARLINK-36852,2026-037B,2026-07-12T11:52:05.129184,15.27584758,.0002081,43.0020,206.2870,268.3953,91.6660,0,U,67933,999,2242,.50146737E-3,.13565E-3,0
STARLINK-36861,2026-037C,2026-07-12T10:12:22.616064,15.27578523,.00019475,43.0029,206.6108,283.3517,76.7118,0,U,67934,999,2241,.34198927E-3,.916E-4,0
STARLINK-36860,2026-037D,2026-07-12T02:16:01.363872,15.27596207,.000172,43.0024,208.4411,294.4174,65.6498,0,U,67935,999,2236,.34471022E-3,.924E-4,0
STARLINK-36848,2026-037E,2026-07-12T09:55:41.416320,15.27638456,.00019527,43.0017,206.5356,265.8038,94.2591,0,U,67936,999,2241,.11974129E-2,.32895E-3,0
STARLINK-36370,2026-037F,2026-07-12T00:36:20.151072,15.27576030,.00011015,43.0008,208.7775,248.3881,111.6854,0,U,67937,999,2235,.28768526E-3,.7662E-4,0
STARLINK-36371,2026-037G,2026-07-12T02:01:15.324096,15.27575078,.00013329,43.0002,208.3516,275.2606,84.8094,0,U,67938,999,2236,.26058006E-3,.6914E-4,0
