STARLINK-36827          
1 67908U 26036E   26193.53896034  .00013177  00000+0  48735-3 0  9994
2 67908  42.9968 260.4017 0001271 285.1907  74.8804 15.27590523 22816
STARLINK-36822          
1 67909U 26036F   26193.20815673  .00010591  00000+0  39403-3 0  9998
2 67909  42.9965 262.2234 0000801 204.7714 155.3100 15.27561965 22762
STARLINK-36847          
1 67910U 26036G   26193.20431771  .00007619  00000+0  28605-3 0  9992
2 67910  42.9977 262.1922 0001601 283.4306  76.6367 15.27585149 22760
STARLINK-36736          
1 67911U 26036H   26193.26327705  .00010972  00000+0  40756-3 0  9997
2 67911  43.0002 261.7642 0001478 255.1678 104.9010 15.27586191 22775
STARLINK-36676          
1 67912U 26036J   26193.52096746  .00010617  00000+0  39466-3 0  9997
2 67912  43.0022 260.2619 0001854 263.8951  96.1689 15.27590204 22813
STARLINK-36690          
1 67913U 26036K   26193.25557588  .00006893  00000+0  25988-3 0  9999
2 67913  42.9977 261.7008 0001368 236.8832 123.1889 15.27563828 22777
STARLINK-36724          
1 67914U 26036L   26193.57221917  .00007831  00000+0  29366-3 0  9996
2 67914  43.0041 259.7892 0002338 291.3042  68.7560 15.27597465 22827
STARLINK-36723          
1 67915U 26036M   26193.25171135  .00007239  00000+0  27229-3 0  9996
2 67915  43.0014 261.6717 0001557 259.6538 100.4138 15.27585280 22776
STARLINK-36721          
1 67916U 26036N   26193.24143250  .00009338  00000+0  34837-3 0  9998
2 67916  43.0027 261.5974 0001398 271.9552  88.1140 15.27585557 22773
STARLINK-36722          
1 67917U 26036P   26193.17218627  .00007335  00000+0  27577-3 0  9990
2 67917  42.9997 261.9278 0001606 252.6044 107.4632 15.27584976 22767
STARLINK-36341          
1 67918U 26036Q   26193.48898252  .00011013  00000+0  40925-3 0  9993
2 67918  43.0016 260.9036 0001634 277.4941  82.5724 15.27569615 22808
STARLINK-36663          
1 67919U 26036R   26193.49526846  .00012520  00000+0  46363-3 0  9998
2 67919  43.0021 260.0608 0001633 262.7562  97.3104 15.27585147 22811
STARLINK-36375          
1 67920U 26036S   26193.54795224  .00010376  00000+0  38596-3 0  9990
2 67920  42.9994 260.4671 0001514 271.5742  88.4936 15.27586782 22810
STARLINK-36405          
1 67921U 26036T   26193.21716936  .00008583  00000+0  32102-3 0  9992
2 67921  42.9970 262.2956 0001397 275.4235  84.6457 15.27582767 22769
STARLINK-36406          
1 67923U 26036V   26193.20945713  .00009554  00000+0  35618-3 0  9994
2 67923  42.9938 262.2413 0001712 142.9809 217.1161 15.27586754 22764
STARLINK-36714          
1 67924U 26036W   26193.27097380  .00004794  00000+0  18339-3 0  9992
2 67924  42.9955 261.8230 0003768 292.9896  67.0558 15.27622317 22770
STARLINK-36726          
1 67925U 26036X   26193.59150332  .00013634  00000+0  50393-3 0  9994
2 67925  43.0020 259.9494 0002074 296.3794  63.6845 15.27587938 22826
STARLINK-36758          
1 67926U 26036Y   26193.58763924  .00014911  00000+0  55021-3 0  9993
2 67926  43.0035 259.9068 0002515 283.9925  76.0647 15.27582673 22827
STARLINK-36728          
1 67927U 26036Z   26193.25299772  .00009352  00000+0  34891-3 0  9998
2 67927  43.0034 261.6841 0001660 263.2919  96.7743 15.27584140 22771
STARLINK-36771          
1 67928U 26036AA  26193.51839592  .00011843  00000+0  43903-3 0  9990
2 67928  43.0035 260.2428 0001677 265.7624  94.3036 15.27591545 22818
STARLINK-36809          
1 67929U 26036AB  26193.24914462  .00006849  00000+0  25813-3 0  9991
2 67929  43.0040 261.6593 0001898 277.2231  82.8405 15.27584788 22778
STARLINK-36865          
1 67930U 26036AC  26193.23886036  .00008856  00000+0  33088-3 0  9990
2 67930  42.9995 261.5684 0000984 228.0982 131.9786 15.27586005 22771
STARLINK-36781          
1 67931U 26036AD  26193.24271440  .00015024  00000+0  55418-3 0  9995
2 67931  42.9995 261.6016 0001226 173.8926 186.1941 15.27591447 22778
STARLINK-36301          
1 67932U 26037A   26193.43296972  .00009791  00000+0  36477-3 0  9993
2 67932  43.0000 206.6648 0001589 270.0281  90.0389 15.27587361 22414
STARLINK-36852          
1 67933U 26037B   26193.49450381  .00013565  00000+0  50147-3 0  9990
2 67933  43.0020 206.2870 0002081 268.3953  91.6660 15.27584758 22421
STARLINK-36861          
1 67934U 26037C   26193.42526176  .00009160  00000+0  34199-3 0  9995
2 67934  43.0029 206.6108 0001947 283.3517  76.7118 15.27578523 22416
STARLINK-36860          
1 67935U 26037D   26193.09446023  .00009240  00000+0  34471-3 0  9993
2 67935  43.0024 208.4411 0001720 294.4174  65.6498 15.27596207 22361
STARLINK-36848          
1 67936U 26037E   26193.41367380  .00032895  00000+0  11974-2 0  9992
2 67936  43.0017 206.5356 0001952 265.8038  94.2591 15.27638456 22410
STARLINK-36370          
1 67937U 26037F   26193.02523323  .00007662  00000+0  28769-3 0  9996
2 67937  43.0008 208.7775 0001101 248.3881 111.6854 15.27576030 22356
STARLINK-36371          
1 67938U 26037G   26193.08420514  .00006914  00000+0  26058-3 0  9999
2 67938  43.0002 208.3516 0001332 275.2606  84.8094 15.27575078 22369
